NORAD_CAT_ID,OBJECT_NAME,OBJECT_TYPE,EPOCH,MEAN_MOTION,ECCENTRICITY,INCLINATION,RA_OF_ASC_NODE,ARG_OF_PERICENTER,MEAN_ANOMALY,BSTAR,MEAN_MOTION_DOT,MEAN_MOTION_DDOT,TLE_LINE0,TLE_LINE1,TLE_LINE2,SEMIMAJOR_AXIS,PERIOD,APOGEE,PERIGEE,DECAYED
51139.0,STARLINK-3172,PAYLOAD,2023-04-16 03:02:16,15.0885083,0.0001176,53.2179,11.1915,86.074,274.0386,0.00086557,0.00013518,0.0,0 STARLINK-3172,1 51139U 22005AM  23106.12658125  .00013518  00000-0  86557-3 0  9992,2 51139  53.2179  11.1915 0001176  86.0740 274.0386 15.08850830 70045,6917.847,95.437,540.526,538.899,0.0
51139.0,STARLINK-3172,PAYLOAD,2023-04-16 17:20:45,15.08839693,0.0001417,53.2177,8.5178,73.3827,286.7321,0.00092288,0.0001443,0.0,0 STARLINK-3172,1 51139U 22005AM  23106.72274656  .00014430  00000-0  92288-3 0  9993,2 51139  53.2177   8.5178 0001417  73.3827 286.7321 15.08839693 69026,6917.881,95.438,540.727,538.766,0.0
51139.0,STARLINK-3172,PAYLOAD,2023-04-17 02:53:04,15.08849872,0.0001311,53.2179,6.7327,72.7727,287.3409,0.0012007,0.00018878,0.0,0 STARLINK-3172,1 51139U 22005AM  23107.12018670  .00018878  00000-0  12007-2 0  9990,2 51139  53.2179   6.7327 0001311  72.7727 287.3409 15.08849872 69089,6917.85,95.437,540.622,538.808,0.0
51139.0,STARLINK-3172,PAYLOAD,2023-04-17 21:57:41,15.08843187,0.0001384,53.218,3.1634,58.7838,301.3289,0.00066959,0.00010386,0.0,0 STARLINK-3172,1 51139U 22005AM  23107.91506926  .00010386  00000-0  66959-3 0  9995,2 51139  53.2180   3.1634 0001384  58.7838 301.3289 15.08843187 69200,6917.871,95.437,540.693,538.778,0.0
51139.0,STARLINK-3172,PAYLOAD,2023-04-18 02:43:51,15.08854488,0.0001124,53.2181,2.2717,74.5343,285.5774,0.00077187,0.00012023,0.0,0 STARLINK-3172,1 51139U 22005AM  23108.11378516  .00012023  00000-0  77187-3 0  9995,2 51139  53.2181   2.2717 0001124  74.5343 285.5774 15.08854488 69233,6917.836,95.437,540.479,538.924,0.0
51139.0,STARLINK-3172,PAYLOAD,2023-04-19 02:34:38,15.0885328,0.0001083,53.2181,357.8121,89.6903,270.4213,0.00095606,0.00014966,0.0,0 STARLINK-3172,1 51139U 22005AM  23109.10738524  .00014966  00000-0  95606-3 0  9998,2 51139  53.2181 357.8121 0001083  89.6903 270.4213 15.08853280 70494,6917.84,95.437,540.454,538.956,0.0
51139.0,STARLINK-3172,PAYLOAD,2023-04-20 02:25:24,15.08856933,0.0001082,53.2169,353.3522,78.092,282.0194,0.0007025,0.00010915,0.0,0 STARLINK-3172,1 51139U 22005AM  23110.10098145  .00010915  00000-0  70250-3 0  9996,2 51139  53.2169 353.3522 0001082  78.0920 282.0194 15.08856933 70648,6917.829,95.436,540.442,538.945,0.0
51139.0,STARLINK-3172,PAYLOAD,2023-04-21 02:16:12,15.08832474,0.0001057,53.217,348.8891,80.7366,279.3746,-5.4153e-05,-1.149e-05,0.0,0 STARLINK-3172,1 51139U 22005AM  23111.09459014 -.00001149  00000-0 -54153-4 0  9997,2 51139  53.2170 348.8891 0001057  80.7366 279.3746 15.08832474 70796,6917.903,95.438,540.5,539.037,0.0
51139.0,STARLINK-3172,PAYLOAD,2023-04-21 08:37:45,15.08837831,0.0001216,53.2177,347.7025,89.123,270.9902,5.5262e-05,5.92e-06,0.0,0 STARLINK-3172,1 51139U 22005AM  23111.35954957  .00000592  00000-0  55262-4 0  9993,2 51139  53.2177 347.7025 0001216  89.1230 270.9902 15.08837831 69724,6917.887,95.438,540.593,538.911,0.0
51139.0,STARLINK-3172,PAYLOAD,2023-04-21 14:59:17,15.08838836,0.000131,53.2185,346.5132,91.4273,268.687,0.00013278,1.826e-05,0.0,0 STARLINK-3172,1 51139U 22005AM  23111.62451159  .00001826  00000-0  13278-3 0  9990,2 51139  53.2185 346.5132 0001310  91.4273 268.6870 15.08838836 69765,6917.884,95.438,540.655,538.843,0.0
51139.0,STARLINK-3172,PAYLOAD,2023-04-22 02:06:59,15.08850558,0.0001316,53.2176,344.432,91.0978,269.0165,0.00039973,6.081e-05,0.0,0 STARLINK-3172,1 51139U 22005AM  23112.08818839  .00006081  00000-0  39973-3 0  9991,2 51139  53.2176 344.4320 0001316  91.0978 269.0165 15.08850558 70944,6917.848,95.437,540.624,538.803,0.0
51139.0,STARLINK-3172,PAYLOAD,2023-04-22 18:00:50,15.08845579,0.0001429,53.2176,341.458,109.1564,250.9583,0.0001832,2.629e-05,0.0,0 STARLINK-3172,1 51139U 22005AM  23112.75058855  .00002629  00000-0  18320-3 0  9996,2 51139  53.2176 341.4580 0001429 109.1564 250.9583 15.08845579 71048,6917.863,95.437,540.717,538.74,0.0
51139.0,STARLINK-3172,PAYLOAD,2023-04-23 01:57:46,15.08853291,0.0001242,53.216,339.9702,97.9291,262.1842,0.00034102,5.146e-05,0.0,0 STARLINK-3172,1 51139U 22005AM  23113.08178493  .00005146  00000-0  34102-3 0  9997,2 51139  53.2160 339.9702 0001242  97.9291 262.1842 15.08853291 69986,6917.84,95.437,540.564,538.846,0.0
51139.0,STARLINK-3172,PAYLOAD,2023-04-23 17:51:38,15.08838059,0.0001295,53.2174,336.9972,96.1032,264.0107,3.4708e-05,2.65e-06,0.0,0 STARLINK-3172,1 51139U 22005AM  23113.74419153  .00000265  00000-0  34708-4 0  9991,2 51139  53.2174 336.9972 0001295  96.1032 264.0107 15.08838059 71195,6917.886,95.438,540.647,538.855,0.0
51139.0,STARLINK-3172,PAYLOAD,2023-04-24 01:48:33,15.08852071,0.0001535,53.2158,335.5091,85.4826,274.6341,0.00040367,6.144e-05,0.0,0 STARLINK-3172,1 51139U 22005AM  23114.07538877  .00006144  00000-0  40367-3 0  9992,2 51139  53.2158 335.5091 0001535  85.4826 274.6341 15.08852071 70133,6917.843,95.437,540.77,538.647,0.0
51139.0,STARLINK-3172,PAYLOAD,2023-04-25 01:39:18,15.0889687,0.0001366,53.2163,331.0488,97.515,262.5997,0.0012057,0.00018983,0.0,0 STARLINK-3172,1 51139U 22005AM  23115.06896430  .00018983  00000-0  12057-2 0  9992,2 51139  53.2163 331.0488 0001366  97.5150 262.5997 15.08896870 71393,6917.707,95.434,540.517,538.627,0.0
51139.0,STARLINK-3172,PAYLOAD,2023-04-26 14:13:13,15.08817447,0.0001347,53.2148,324.2086,131.8381,228.2726,0.00068406,0.00010609,0.0,0 STARLINK-3172,1 51139U 22005AM  23116.59252162  .00010609  00000-0  68406-3 0  9996,2 51139  53.2148 324.2086 0001347 131.8381 228.2726 15.08817447 70516,6917.949,95.439,540.746,538.882,0.0
51139.0,STARLINK-3172,PAYLOAD,2023-04-26 20:34:46,15.0883332,0.0001194,53.2158,323.0218,127.4955,232.6146,0.0014975,0.00023621,0.0,0 STARLINK-3172,1 51139U 22005AM  23116.85748473  .00023621  00000-0  14975-2 0  9999,2 51139  53.2158 323.0218 0001194 127.4955 232.6146 15.08833320 70556,6917.901,95.438,540.592,538.94,0.0
51139.0,STARLINK-3172,PAYLOAD,2023-04-27 01:20:56,15.08848953,0.0001224,53.2161,322.1294,133.3666,226.7429,0.0027521,0.00043795,0.0,0 STARLINK-3172,1 51139U 22005AM  23117.05621070  .00043795  00000-0  27521-2 0  9990,2 51139  53.2161 322.1294 0001224 133.3666 226.7429 15.08848953 71695,6917.853,95.437,540.565,538.871,0.0
51139.0,STARLINK-3172,PAYLOAD,2023-04-27 14:04:00,15.08857635,0.000149,53.2157,319.7504,132.6877,227.4241,0.00020597,2.993e-05,0.0,0 STARLINK-3172,1 51139U 22005AM  23117.58612164  .00002993  00000-0  20597-3 0  9994,2 51139  53.2157 319.7504 0001490 132.6877 227.4241 15.08857635 70660,6917.826,95.436,540.722,538.661,0.0
51139.0,STARLINK-3172,PAYLOAD,2023-04-28 05:57:51,15.08844738,0.000107,53.2175,316.7781,140.2738,219.8332,-0.0001364,-2.458e-05,0.0,0 STARLINK-3172,1 51139U 22005AM  23118.24851779 -.00002458  00000-0 -13640-3 0  9994,2 51139  53.2175 316.7781 0001070 140.2738 219.8332 15.08844738 71879,6917.866,95.437,540.471,538.991,0.0
51139.0,STARLINK-3172,PAYLOAD,2023-04-29 05:48:38,15.08843001,9.57e-05,53.215,312.3163,127.1002,233.0078,4.6958e-05,4.6e-06,0.0,0 STARLINK-3172,1 51139U 22005AM  23119.24211774  .00000460  00000-0  46958-4 0  9998,2 51139  53.2150 312.3163 0000957 127.1002 233.0078 15.08843001 70910,6917.871,95.437,540.398,539.074,0.0
51139.0,STARLINK-3172,PAYLOAD,2023-04-29 18:31:44,15.08846029,9.15e-05,53.216,309.9377,119.2185,240.8899,0.00020185,2.927e-05,0.0,0 STARLINK-3172,1 51139U 22005AM  23119.77203741  .00002927  00000-0  20185-3 0  9994,2 51139  53.2160 309.9377 0000915 119.2185 240.8899 15.08846029 72101,6917.862,95.437,540.36,539.094,0.0
51139.0,STARLINK-3172,PAYLOAD,2023-04-29 20:07:07,15.08847867,9.5e-05,53.2157,309.6404,116.4488,243.6601,0.00026609,3.95e-05,0.0,0 STARLINK-3172,1 51139U 22005AM  23119.83827711  .00003950  00000-0  26609-3 0  9994,2 51139  53.2157 309.6404 0000950 116.4488 243.6601 15.08847867 71000,6917.856,95.437,540.379,539.064,0.0
51139.0,STARLINK-3172,PAYLOAD,2023-04-30 19:57:54,15.08843539,8.13e-05,53.2158,305.1795,113.4557,246.652,0.00015383,2.162e-05,0.0,0 STARLINK-3172,1 51139U 22005AM  23120.83187820  .00002162  00000-0  15383-3 0  9997,2 51139  53.2158 305.1795 0000813 113.4557 246.6520 15.08843539 72261,6917.87,95.437,540.297,539.172,0.0
51139.0,STARLINK-3172,PAYLOAD,2023-04-30 23:08:40,15.08846099,7.91e-05,53.2157,304.5846,111.8903,248.2173,0.00019317,2.788e-05,0.0,0 STARLINK-3172,1 51139U 22005AM  23120.96435700  .00002788  00000-0  19317-3 0  9999,2 51139  53.2157 304.5846 0000791 111.8903 248.2173 15.08846099 71177,6917.862,95.437,540.274,539.18,0.0
51139.0,STARLINK-3172,PAYLOAD,2023-05-01 18:13:18,15.08837241,8.6e-05,53.2166,301.0174,97.066,263.043,1.1135e-05,-1.1e-06,0.0,0 STARLINK-3172,1 51139U 22005AM  23121.75924341 -.00000110  00000-0  11135-4 0  9990,2 51139  53.2166 301.0174 0000860  97.0660 263.0430 15.08837241 72402,6917.889,95.438,540.349,539.159,0.0
51139.0,STARLINK-3172,PAYLOAD,2023-05-01 21:24:04,15.08842502,8.2e-05,53.2167,300.4239,84.6368,275.4718,0.00010235,1.342e-05,0.0,0 STARLINK-3172,1 51139U 22005AM  23121.89172157  .00001342  00000-0  10235-3 0  9991,2 51139  53.2167 300.4239 0000820  84.6368 275.4718 15.08842502 71312,6917.873,95.437,540.305,539.17,0.0
51139.0,STARLINK-3172,PAYLOAD,2023-05-02 18:04:04,15.08859358,6.58e-05,53.2159,296.5538,105.0276,255.0789,0.00033983,5.128e-05,0.0,0 STARLINK-3172,1 51139U 22005AM  23122.75283134  .00005128  00000-0  33983-3 0  9996,2 51139  53.2159 296.5538 0000658 105.0276 255.0789 15.08859358 72551,6917.821,95.436,540.141,539.231,0.0
51139.0,STARLINK-3172,PAYLOAD,2023-05-02 21:14:50,15.08862625,7.86e-05,53.2162,295.9556,115.6269,244.4804,0.00038543,5.855e-05,0.0,0 STARLINK-3172,1 51139U 22005AM  23122.88530812  .00005855  00000-0  38543-3 0  9992,2 51139  53.2162 295.9556 0000786 115.6269 244.4804 15.08862625 71469,6917.811,95.436,540.22,539.132,0.0
